SL-3 R/B                
1 13154U 82039B   25308.91846316  .00002476  00000+0  15240-3 0  9995
2 13154  81.1823 359.5800 0032664  15.3369 344.8837 15.09213859362817
SL-3 R/B                
1 13403U 82079B   25308.91024531  .00005790  00000+0  24318-3 0  9991
2 13403  81.1473 340.2392 0024781 225.2301 134.6916 15.22992488358698
SL-14 R/B               
1 13553U 82092B   25308.84495917  .00000714  00000+0  77731-4 0  9993
2 13553  82.5668 258.1496 0020442   0.2930  29.6678 14.86486840310387
SL-3 R/B                
1 13819U 83010B   25308.82932460  .00012056  00000+0  27967-3 0  9993
2 13819  81.1029 154.8452 0018316 119.2493 241.0583 15.42079591338675
SL-3 R/B                
1 14208U 83075B   25308.92730011  .00011228  00000+0  33036-3 0  9990
2 14208  97.6095 304.1734 0021939 319.7536  40.2082 15.35016798310996
COSMOS 1536             
1 14699U 84013A   25308.28479463  .00009040  00000+0  39543-3 0  9995
2 14699  82.5471 232.2753 0015813  11.9514 348.2094 15.21809418253538
SL-14 R/B               
1 14820U 84027B   25308.91058231  .00000532  00000+0  58250-4 0  9996
2 14820  82.5437   2.0307 0018756  31.2390 328.9937 14.85815315229109
SL-8 R/B                
1 15483U 85006B   25308.74933140  .00000281  00000+0  10214-3 0  9990
2 15483  74.0430 131.0290 0017482  75.9777 296.0781 14.37685686136075
SL-12 R/B(2)            
1 15772U 85042D   25308.85040399  .00000137  00000+0  83204-4 0  9998
2 15772  71.1093 351.4673 0036933 317.1532 215.9834 14.21933360 96649
SL-14 R/B               
1 15945U 85069B   25308.79839904  .00000546  00000+0  59257-4 0  9995
2 15945  82.5249 142.3739 0017432 244.3297 115.6119 14.86255901154288
SL-16 R/B               
1 16182U 85097B   25308.73709851 -.00000132  00000+0 -42278-4 0  9999
2 16182  71.0045  43.6071 0005108  84.4766  70.2360 14.16576698 69531
SL-14 R/B               
1 16496U 86006B   25308.94024559  .00000699  00000+0  72061-4 0  9995
2 16496  82.5298  17.1129 0075953 327.2139  32.4376 14.86592040130670
