CCSDS_OMM_VERS = 2.0
CREATION_DATE  = 
ORIGINATOR     = 

OBJECT_NAME    = SL-3 R/B
OBJECT_ID      = 1982-039B
CENTER_NAME    = EARTH
REF_FRAME      = TEME
TIME_SYSTEM    = UTC
MEAN_ELEMENT_THEORY = SGP/SGP4

EPOCH          = 2025-11-04T22:02:35.217024
MEAN_MOTION    = 15.09213859
ECCENTRICITY   = .00326641
INCLINATION    = 81.1823
RA_OF_ASC_NODE = 359.5800
ARG_OF_PERICENTER = 15.3369
MEAN_ANOMALY   = 344.8837

EPHEMERIS_TYPE = 0
CLASSIFICATION_TYPE = U
NORAD_CAT_ID   = 13154
ELEMENT_SET_NO = 999
REV_AT_EPOCH   = 36281
BSTAR          = .15240134E-3
MEAN_MOTION_DOT = .2476E-4
MEAN_MOTION_DDOT = 0

CCSDS_OMM_VERS = 2.0
CREATION_DATE  = 
ORIGINATOR     = 

OBJECT_NAME    = SL-3 R/B
OBJECT_ID      = 1982-079B
CENTER_NAME    = EARTH
REF_FRAME      = TEME
TIME_SYSTEM    = UTC
MEAN_ELEMENT_THEORY = SGP/SGP4

EPOCH          = 2025-11-04T21:50:45.194784
MEAN_MOTION    = 15.22992488
ECCENTRICITY   = .00247814
INCLINATION    = 81.1473
RA_OF_ASC_NODE = 340.2392
ARG_OF_PERICENTER = 225.2301
MEAN_ANOMALY   = 134.6916

EPHEMERIS_TYPE = 0
CLASSIFICATION_TYPE = U
NORAD_CAT_ID   = 13403
ELEMENT_SET_NO = 999
REV_AT_EPOCH   = 35869
BSTAR          = .24318145E-3
MEAN_MOTION_DOT = .579E-4
MEAN_MOTION_DDOT = 0

CCSDS_OMM_VERS = 2.0
CREATION_DATE  = 
ORIGINATOR     = 

OBJECT_NAME    = SL-14 R/B
OBJECT_ID      = 1982-092B
CENTER_NAME    = EARTH
REF_FRAME      = TEME
TIME_SYSTEM    = UTC
MEAN_ELEMENT_THEORY = SGP/SGP4

EPOCH          = 2025-11-04T20:16:44.472288
MEAN_MOTION    = 14.86486840
ECCENTRICITY   = .00204421
INCLINATION    = 82.5668
RA_OF_ASC_NODE = 258.1496
ARG_OF_PERICENTER = 0.2930
MEAN_ANOMALY   = 29.6678

EPHEMERIS_TYPE = 0
CLASSIFICATION_TYPE = U
NORAD_CAT_ID   = 13553
ELEMENT_SET_NO = 999
REV_AT_EPOCH   = 31038
BSTAR          = .77730806E-4
MEAN_MOTION_DOT = .714E-5
MEAN_MOTION_DDOT = 0

CCSDS_OMM_VERS = 2.0
CREATION_DATE  = 
ORIGINATOR     = 

OBJECT_NAME    = SL-3 R/B
OBJECT_ID      = 1983-010B
CENTER_NAME    = EARTH
REF_FRAME      = TEME
TIME_SYSTEM    = UTC
MEAN_ELEMENT_THEORY = SGP/SGP4

EPOCH          = 2025-11-04T19:54:13.645440
MEAN_MOTION    = 15.42079591
ECCENTRICITY   = .00183163
INCLINATION    = 81.1029
RA_OF_ASC_NODE = 154.8452
ARG_OF_PERICENTER = 119.2493
MEAN_ANOMALY   = 241.0583

EPHEMERIS_TYPE = 0
CLASSIFICATION_TYPE = U
NORAD_CAT_ID   = 13819
ELEMENT_SET_NO = 999
REV_AT_EPOCH   = 33867
BSTAR          = .2796654E-3
MEAN_MOTION_DOT = .12056E-3
MEAN_MOTION_DDOT = 0

CCSDS_OMM_VERS = 2.0
CREATION_DATE  = 
ORIGINATOR     = 

OBJECT_NAME    = SL-3 R/B
OBJECT_ID      = 1983-075B
CENTER_NAME    = EARTH
REF_FRAME      = TEME
TIME_SYSTEM    = UTC
MEAN_ELEMENT_THEORY = SGP/SGP4

EPOCH          = 2025-11-04T22:15:18.729504
MEAN_MOTION    = 15.35016798
ECCENTRICITY   = .00219396
INCLINATION    = 97.6095
RA_OF_ASC_NODE = 304.1734
ARG_OF_PERICENTER = 319.7536
MEAN_ANOMALY   = 40.2082

EPHEMERIS_TYPE = 0
CLASSIFICATION_TYPE = U
NORAD_CAT_ID   = 14208
ELEMENT_SET_NO = 999
REV_AT_EPOCH   = 31099
BSTAR          = .33036412E-3
MEAN_MOTION_DOT = .11228E-3
MEAN_MOTION_DDOT = 0

CCSDS_OMM_VERS = 2.0
CREATION_DATE  = 
ORIGINATOR     = 

OBJECT_NAME    = COSMOS 1536
OBJECT_ID      = 1984-013A
CENTER_NAME    = EARTH
REF_FRAME      = TEME
TIME_SYSTEM    = UTC
MEAN_ELEMENT_THEORY = SGP/SGP4

EPOCH          = 2025-11-04T06:50:06.256032
MEAN_MOTION    = 15.21809418
ECCENTRICITY   = .0015813
INCLINATION    = 82.5471
RA_OF_ASC_NODE = 232.2753
ARG_OF_PERICENTER = 11.9514
MEAN_ANOMALY   = 348.2094

EPHEMERIS_TYPE = 0
CLASSIFICATION_TYPE = U
NORAD_CAT_ID   = 14699
ELEMENT_SET_NO = 999
REV_AT_EPOCH   = 25353
BSTAR          = .39543E-3
MEAN_MOTION_DOT = .904E-4
MEAN_MOTION_DDOT = 0

CCSDS_OMM_VERS = 2.0
CREATION_DATE  = 
ORIGINATOR     = 

OBJECT_NAME    = SL-14 R/B
OBJECT_ID      = 1984-027B
CENTER_NAME    = EARTH
REF_FRAME      = TEME
TIME_SYSTEM    = UTC
MEAN_ELEMENT_THEORY = SGP/SGP4

EPOCH          = 2025-11-04T21:51:14.311584
MEAN_MOTION    = 14.85815315
ECCENTRICITY   = .00187564
INCLINATION    = 82.5437
RA_OF_ASC_NODE = 2.0307
ARG_OF_PERICENTER = 31.2390
MEAN_ANOMALY   = 328.9937

EPHEMERIS_TYPE = 0
CLASSIFICATION_TYPE = U
NORAD_CAT_ID   = 14820
ELEMENT_SET_NO = 999
REV_AT_EPOCH   = 22910
BSTAR          = .58250119E-4
MEAN_MOTION_DOT = .532E-5
MEAN_MOTION_DDOT = 0

CCSDS_OMM_VERS = 2.0
CREATION_DATE  = 
ORIGINATOR     = 

OBJECT_NAME    = SL-8 R/B
OBJECT_ID      = 1985-006B
CENTER_NAME    = EARTH
REF_FRAME      = TEME
TIME_SYSTEM    = UTC
MEAN_ELEMENT_THEORY = SGP/SGP4

EPOCH          = 2025-11-04T17:59:02.232960
MEAN_MOTION    = 14.37685686
ECCENTRICITY   = .00174827
INCLINATION    = 74.0430
RA_OF_ASC_NODE = 131.0290
ARG_OF_PERICENTER = 75.9777
MEAN_ANOMALY   = 296.0781

EPHEMERIS_TYPE = 0
CLASSIFICATION_TYPE = U
NORAD_CAT_ID   = 15483
ELEMENT_SET_NO = 999
REV_AT_EPOCH   = 13607
BSTAR          = .10214476E-3
MEAN_MOTION_DOT = .281E-5
MEAN_MOTION_DDOT = 0

CCSDS_OMM_VERS = 2.0
CREATION_DATE  = 
ORIGINATOR     = 

OBJECT_NAME    = SL-12 R/B(2)
OBJECT_ID      = 1985-042D
CENTER_NAME    = EARTH
REF_FRAME      = TEME
TIME_SYSTEM    = UTC
MEAN_ELEMENT_THEORY = SGP/SGP4

EPOCH          = 2025-11-04T20:24:34.904736
MEAN_MOTION    = 14.21933360
ECCENTRICITY   = .00369335
INCLINATION    = 71.1093
RA_OF_ASC_NODE = 351.4673
ARG_OF_PERICENTER = 317.1532
MEAN_ANOMALY   = 215.9834

EPHEMERIS_TYPE = 0
CLASSIFICATION_TYPE = U
NORAD_CAT_ID   = 15772
ELEMENT_SET_NO = 999
REV_AT_EPOCH   = 9664
BSTAR          = .83203609E-4
MEAN_MOTION_DOT = .137E-5
MEAN_MOTION_DDOT = 0

CCSDS_OMM_VERS = 2.0
CREATION_DATE  = 
ORIGINATOR     = 

OBJECT_NAME    = SL-14 R/B
OBJECT_ID      = 1985-069B
CENTER_NAME    = EARTH
REF_FRAME      = TEME
TIME_SYSTEM    = UTC
MEAN_ELEMENT_THEORY = SGP/SGP4

EPOCH          = 2025-11-04T19:09:41.677056
MEAN_MOTION    = 14.86255901
ECCENTRICITY   = .0017432
INCLINATION    = 82.5249
RA_OF_ASC_NODE = 142.3739
ARG_OF_PERICENTER = 244.3297
MEAN_ANOMALY   = 115.6119

EPHEMERIS_TYPE = 0
CLASSIFICATION_TYPE = U
NORAD_CAT_ID   = 15945
ELEMENT_SET_NO = 999
REV_AT_EPOCH   = 15428
BSTAR          = .59257376E-4
MEAN_MOTION_DOT = .546E-5
MEAN_MOTION_DDOT = 0

CCSDS_OMM_VERS = 2.0
CREATION_DATE  = 
ORIGINATOR     = 

OBJECT_NAME    = SL-16 R/B
OBJECT_ID      = 1985-097B
CENTER_NAME    = EARTH
REF_FRAME      = TEME
TIME_SYSTEM    = UTC
MEAN_ELEMENT_THEORY = SGP/SGP4

EPOCH          = 2025-11-04T17:41:25.311264
MEAN_MOTION    = 14.16576698
ECCENTRICITY   = .00051087
INCLINATION    = 71.0045
RA_OF_ASC_NODE = 43.6071
ARG_OF_PERICENTER = 84.4766
MEAN_ANOMALY   = 70.2360

EPHEMERIS_TYPE = 0
CLASSIFICATION_TYPE = U
NORAD_CAT_ID   = 16182
ELEMENT_SET_NO = 999
REV_AT_EPOCH   = 6953
BSTAR          = -.42278195E-4
MEAN_MOTION_DOT = -.132E-5
MEAN_MOTION_DDOT = 0

CCSDS_OMM_VERS = 2.0
CREATION_DATE  = 
ORIGINATOR     = 

OBJECT_NAME    = SL-14 R/B
OBJECT_ID      = 1986-006B
CENTER_NAME    = EARTH
REF_FRAME      = TEME
TIME_SYSTEM    = UTC
MEAN_ELEMENT_THEORY = SGP/SGP4

EPOCH          = 2025-11-04T22:33:57.218976
MEAN_MOTION    = 14.86592040
ECCENTRICITY   = .00759537
INCLINATION    = 82.5298
RA_OF_ASC_NODE = 17.1129
ARG_OF_PERICENTER = 327.2139
MEAN_ANOMALY   = 32.4376

EPHEMERIS_TYPE = 0
CLASSIFICATION_TYPE = U
NORAD_CAT_ID   = 16496
ELEMENT_SET_NO = 999
REV_AT_EPOCH   = 13067
BSTAR          = .72061031E-4
MEAN_MOTION_DOT = .699E-5
MEAN_MOTION_DDOT = 0

